KUIPER-00175            
1 67135U 25301C   26007.98108136  .00026208  00000+0  71789-3 0  9996
2 67135  51.8741 358.3733 0002785  91.5057 268.6249 15.37135051  4474
KUIPER-00179            
1 67136U 25301D   26007.98636444  .00027770  00000+0  77060-3 0  9998
2 67136  51.8736 358.4098 0003318 116.7444 243.3882 15.36699031  4584
KUIPER-00181            
1 67137U 25301E   26007.88371741 -.00004755  00000+0 -12714-3 0  9999
2 67137  51.8658 359.2074 0010291 183.3526 176.7392 15.34863810  4547
KUIPER-00183            
1 67138U 25301F   26007.88817629  .00022282  00000+0  66146-3 0  9991
2 67138  51.8634 359.2322 0011186 185.6296 174.4565 15.34659850  4556
KUIPER-00184            
1 67139U 25301G   26007.88284970  .00021466  00000+0  63322-3 0  9995
2 67139  51.8645 359.2006 0009302 183.4194 176.6730 15.34902311  4661
KUIPER-00186            
1 67140U 25301H   26007.93887410  .00019347  00000+0  55778-3 0  9992
2 67140  51.8692 358.8357 0007874 168.7690 191.3473 15.35703006  4397
KUIPER-00187            
1 67141U 25301J   26007.99286792  .00023877  00000+0  67289-3 0  9998
2 67141  51.8710 358.4529 0004923 154.9795 205.1431 15.36297157  4407
KUIPER-00188            
1 67142U 25301K   26007.94032157  .00013949  00000+0  40739-3 0  9998
2 67142  51.8706 358.8464 0007585 174.4642 185.6429 15.35560369  4394
KUIPER-00191            
1 67143U 25301L   26007.93746286  .00018465  00000+0  53283-3 0  9999
2 67143  51.8681 358.8258 0006570 167.8689 192.2456 15.35716399  4422
KUIPER-00196            
1 67144U 25301M   26007.99014983  .00027716  00000+0  77439-3 0  9996
2 67144  51.8728 358.4356 0003747 130.8175 229.3137 15.36484794  4401
KUIPER-00204            
1 67145U 25301N   26007.91668981 -.02408946  00000+0 -86691-1 0  9992
2 67145  51.8777 358.8014 0004849 113.2861 179.2721 15.31977787  4497
KUIPER-00210            
1 67146U 25301P   26007.88680361  .00018436  00000+0  54887-3 0  9996
2 67146  51.8619 359.2212 0010450 190.5066 169.5703 15.34704294  4551
