CCSDS_OMM_VERS = 2.0
CREATION_DATE  = 
ORIGINATOR     = 

OBJECT_NAME    = KUIPER-00175
OBJECT_ID      = 2025-301C
CENTER_NAME    = EARTH
REF_FRAME      = TEME
TIME_SYSTEM    = UTC
MEAN_ELEMENT_THEORY = SGP/SGP4

EPOCH          = 2026-01-07T23:32:45.429504
MEAN_MOTION    = 15.37135051
ECCENTRICITY   = .00027854
INCLINATION    = 51.8741
RA_OF_ASC_NODE = 358.3733
ARG_OF_PERICENTER = 91.5057
MEAN_ANOMALY   = 268.6249

EPHEMERIS_TYPE = 0
CLASSIFICATION_TYPE = U
NORAD_CAT_ID   = 67135
ELEMENT_SET_NO = 999
REV_AT_EPOCH   = 447
BSTAR          = .71788947E-3
MEAN_MOTION_DOT = .26208E-3
MEAN_MOTION_DDOT = 0

CCSDS_OMM_VERS = 2.0
CREATION_DATE  = 
ORIGINATOR     = 

OBJECT_NAME    = KUIPER-00179
OBJECT_ID      = 2025-301D
CENTER_NAME    = EARTH
REF_FRAME      = TEME
TIME_SYSTEM    = UTC
MEAN_ELEMENT_THEORY = SGP/SGP4

EPOCH          = 2026-01-07T23:40:21.887616
MEAN_MOTION    = 15.36699031
ECCENTRICITY   = .00033188
INCLINATION    = 51.8736
RA_OF_ASC_NODE = 358.4098
ARG_OF_PERICENTER = 116.7444
MEAN_ANOMALY   = 243.3882

EPHEMERIS_TYPE = 0
CLASSIFICATION_TYPE = U
NORAD_CAT_ID   = 67136
ELEMENT_SET_NO = 999
REV_AT_EPOCH   = 458
BSTAR          = .77059646E-3
MEAN_MOTION_DOT = .2777E-3
MEAN_MOTION_DDOT = 0

CCSDS_OMM_VERS = 2.0
CREATION_DATE  = 
ORIGINATOR     = 

OBJECT_NAME    = KUIPER-00181
OBJECT_ID      = 2025-301E
CENTER_NAME    = EARTH
REF_FRAME      = TEME
TIME_SYSTEM    = UTC
MEAN_ELEMENT_THEORY = SGP/SGP4

EPOCH          = 2026-01-07T21:12:33.184224
MEAN_MOTION    = 15.34863810
ECCENTRICITY   = .00102913
INCLINATION    = 51.8658
RA_OF_ASC_NODE = 359.2074
ARG_OF_PERICENTER = 183.3526
MEAN_ANOMALY   = 176.7392

EPHEMERIS_TYPE = 0
CLASSIFICATION_TYPE = U
NORAD_CAT_ID   = 67137
ELEMENT_SET_NO = 999
REV_AT_EPOCH   = 454
BSTAR          = -.12714191E-3
MEAN_MOTION_DOT = -.4755E-4
MEAN_MOTION_DDOT = 0

CCSDS_OMM_VERS = 2.0
CREATION_DATE  = 
ORIGINATOR     = 

OBJECT_NAME    = KUIPER-00183
OBJECT_ID      = 2025-301F
CENTER_NAME    = EARTH
REF_FRAME      = TEME
TIME_SYSTEM    = UTC
MEAN_ELEMENT_THEORY = SGP/SGP4

EPOCH          = 2026-01-07T21:18:58.431456
MEAN_MOTION    = 15.34659850
ECCENTRICITY   = .00111863
INCLINATION    = 51.8634
RA_OF_ASC_NODE = 359.2322
ARG_OF_PERICENTER = 185.6296
MEAN_ANOMALY   = 174.4565

EPHEMERIS_TYPE = 0
CLASSIFICATION_TYPE = U
NORAD_CAT_ID   = 67138
ELEMENT_SET_NO = 999
REV_AT_EPOCH   = 455
BSTAR          = .66146383E-3
MEAN_MOTION_DOT = .22282E-3
MEAN_MOTION_DDOT = 0

CCSDS_OMM_VERS = 2.0
CREATION_DATE  = 
ORIGINATOR     = 

OBJECT_NAME    = KUIPER-00184
OBJECT_ID      = 2025-301G
CENTER_NAME    = EARTH
REF_FRAME      = TEME
TIME_SYSTEM    = UTC
MEAN_ELEMENT_THEORY = SGP/SGP4

EPOCH          = 2026-01-07T21:11:18.214080
MEAN_MOTION    = 15.34902311
ECCENTRICITY   = .00093025
INCLINATION    = 51.8645
RA_OF_ASC_NODE = 359.2006
ARG_OF_PERICENTER = 183.4194
MEAN_ANOMALY   = 176.6730

EPHEMERIS_TYPE = 0
CLASSIFICATION_TYPE = U
NORAD_CAT_ID   = 67139
ELEMENT_SET_NO = 999
REV_AT_EPOCH   = 466
BSTAR          = .63321658E-3
MEAN_MOTION_DOT = .21466E-3
MEAN_MOTION_DDOT = 0

CCSDS_OMM_VERS = 2.0
CREATION_DATE  = 
ORIGINATOR     = 

OBJECT_NAME    = KUIPER-00186
OBJECT_ID      = 2025-301H
CENTER_NAME    = EARTH
REF_FRAME      = TEME
TIME_SYSTEM    = UTC
MEAN_ELEMENT_THEORY = SGP/SGP4

EPOCH          = 2026-01-07T22:31:58.722240
MEAN_MOTION    = 15.35703006
ECCENTRICITY   = .00078741
INCLINATION    = 51.8692
RA_OF_ASC_NODE = 358.8357
ARG_OF_PERICENTER = 168.7690
MEAN_ANOMALY   = 191.3473

EPHEMERIS_TYPE = 0
CLASSIFICATION_TYPE = U
NORAD_CAT_ID   = 67140
ELEMENT_SET_NO = 999
REV_AT_EPOCH   = 439
BSTAR          = .55778487E-3
MEAN_MOTION_DOT = .19347E-3
MEAN_MOTION_DDOT = 0

CCSDS_OMM_VERS = 2.0
CREATION_DATE  = 
ORIGINATOR     = 

OBJECT_NAME    = KUIPER-00187
OBJECT_ID      = 2025-301J
CENTER_NAME    = EARTH
REF_FRAME      = TEME
TIME_SYSTEM    = UTC
MEAN_ELEMENT_THEORY = SGP/SGP4

EPOCH          = 2026-01-07T23:49:43.788288
MEAN_MOTION    = 15.36297157
ECCENTRICITY   = .00049237
INCLINATION    = 51.8710
RA_OF_ASC_NODE = 358.4529
ARG_OF_PERICENTER = 154.9795
MEAN_ANOMALY   = 205.1431

EPHEMERIS_TYPE = 0
CLASSIFICATION_TYPE = U
NORAD_CAT_ID   = 67141
ELEMENT_SET_NO = 999
REV_AT_EPOCH   = 440
BSTAR          = .67288782E-3
MEAN_MOTION_DOT = .23877E-3
MEAN_MOTION_DDOT = 0

CCSDS_OMM_VERS = 2.0
CREATION_DATE  = 
ORIGINATOR     = 

OBJECT_NAME    = KUIPER-00188
OBJECT_ID      = 2025-301K
CENTER_NAME    = EARTH
REF_FRAME      = TEME
TIME_SYSTEM    = UTC
MEAN_ELEMENT_THEORY = SGP/SGP4

EPOCH          = 2026-01-07T22:34:03.783648
MEAN_MOTION    = 15.35560369
ECCENTRICITY   = .00075852
INCLINATION    = 51.8706
RA_OF_ASC_NODE = 358.8464
ARG_OF_PERICENTER = 174.4642
MEAN_ANOMALY   = 185.6429

EPHEMERIS_TYPE = 0
CLASSIFICATION_TYPE = U
NORAD_CAT_ID   = 67142
ELEMENT_SET_NO = 999
REV_AT_EPOCH   = 439
BSTAR          = .4073864E-3
MEAN_MOTION_DOT = .13949E-3
MEAN_MOTION_DDOT = 0

CCSDS_OMM_VERS = 2.0
CREATION_DATE  = 
ORIGINATOR     = 

OBJECT_NAME    = KUIPER-00191
OBJECT_ID      = 2025-301L
CENTER_NAME    = EARTH
REF_FRAME      = TEME
TIME_SYSTEM    = UTC
MEAN_ELEMENT_THEORY = SGP/SGP4

EPOCH          = 2026-01-07T22:29:56.791104
MEAN_MOTION    = 15.35716399
ECCENTRICITY   = .00065702
INCLINATION    = 51.8681
RA_OF_ASC_NODE = 358.8258
ARG_OF_PERICENTER = 167.8689
MEAN_ANOMALY   = 192.2456

EPHEMERIS_TYPE = 0
CLASSIFICATION_TYPE = U
NORAD_CAT_ID   = 67143
ELEMENT_SET_NO = 999
REV_AT_EPOCH   = 442
BSTAR          = .53283008E-3
MEAN_MOTION_DOT = .18465E-3
MEAN_MOTION_DDOT = 0

CCSDS_OMM_VERS = 2.0
CREATION_DATE  = 
ORIGINATOR     = 

OBJECT_NAME    = KUIPER-00196
OBJECT_ID      = 2025-301M
CENTER_NAME    = EARTH
REF_FRAME      = TEME
TIME_SYSTEM    = UTC
MEAN_ELEMENT_THEORY = SGP/SGP4

EPOCH          = 2026-01-07T23:45:48.945312
MEAN_MOTION    = 15.36484794
ECCENTRICITY   = .00037473
INCLINATION    = 51.8728
RA_OF_ASC_NODE = 358.4356
ARG_OF_PERICENTER = 130.8175
MEAN_ANOMALY   = 229.3137

EPHEMERIS_TYPE = 0
CLASSIFICATION_TYPE = U
NORAD_CAT_ID   = 67144
ELEMENT_SET_NO = 999
REV_AT_EPOCH   = 440
BSTAR          = .77438797E-3
MEAN_MOTION_DOT = .27716E-3
MEAN_MOTION_DDOT = 0

CCSDS_OMM_VERS = 2.0
CREATION_DATE  = 
ORIGINATOR     = 

OBJECT_NAME    = KUIPER-00204
OBJECT_ID      = 2025-301N
CENTER_NAME    = EARTH
REF_FRAME      = TEME
TIME_SYSTEM    = UTC
MEAN_ELEMENT_THEORY = SGP/SGP4

EPOCH          = 2026-01-07T22:00:01.999584
MEAN_MOTION    = 15.31977787
ECCENTRICITY   = .00048495
INCLINATION    = 51.8777
RA_OF_ASC_NODE = 358.8014
ARG_OF_PERICENTER = 113.2861
MEAN_ANOMALY   = 179.2721

EPHEMERIS_TYPE = 0
CLASSIFICATION_TYPE = U
NORAD_CAT_ID   = 67145
ELEMENT_SET_NO = 999
REV_AT_EPOCH   = 449
BSTAR          = -.86690628E-1
MEAN_MOTION_DOT = -.2408946E-1
MEAN_MOTION_DDOT = 0

CCSDS_OMM_VERS = 2.0
CREATION_DATE  = 
ORIGINATOR     = 

OBJECT_NAME    = KUIPER-00210
OBJECT_ID      = 2025-301P
CENTER_NAME    = EARTH
REF_FRAME      = TEME
TIME_SYSTEM    = UTC
MEAN_ELEMENT_THEORY = SGP/SGP4

EPOCH          = 2026-01-07T21:16:59.831904
MEAN_MOTION    = 15.34704294
ECCENTRICITY   = .00104503
INCLINATION    = 51.8619
RA_OF_ASC_NODE = 359.2212
ARG_OF_PERICENTER = 190.5066
MEAN_ANOMALY   = 169.5703

EPHEMERIS_TYPE = 0
CLASSIFICATION_TYPE = U
NORAD_CAT_ID   = 67146
ELEMENT_SET_NO = 999
REV_AT_EPOCH   = 455
BSTAR          = .5488739E-3
MEAN_MOTION_DOT = .18436E-3
MEAN_MOTION_DDOT = 0

